{
    "links": {
        "self": "http://www.neowsapp.com/rest/v1/neo/3695736?api_key=iIulBulltgU6a56xZRHN4H3l9WmuAYTsLGpBGhQ2"
    },
    "id": "3695736",
    "neo_reference_id": "3695736",
    "name": "(2014 UM192)",
    "designation": "2014 UM192",
    "nasa_jpl_url": "http://ssd.jpl.nasa.gov/sbdb.cgi?sstr=3695736",
    "absolute_magnitude_h": 25.8,
    "estimated_diameter": {
        "kilometers": {
            "estimated_diameter_min": 0.0183888672,
            "estimated_diameter_max": 0.0411187571
        },
        "meters": {
            "estimated_diameter_min": 18.388867207,
            "estimated_diameter_max": 41.1187571041
        },
        "miles": {
            "estimated_diameter_min": 0.0114263088,
            "estimated_diameter_max": 0.0255500032
        },
        "feet": {
            "estimated_diameter_min": 60.3309310875,
            "estimated_diameter_max": 134.9040630575
        }
    },
    "is_potentially_hazardous_asteroid": false,
    "close_approach_data": [
        {
            "close_approach_date": "2014-10-22",
            "close_approach_date_full": "2014-Oct-22 18:49",
            "epoch_date_close_approach": 1414003740000,
            "relative_velocity": {
                "kilometers_per_second": "13.1717402309",
                "kilometers_per_hour": "47418.2648312893",
                "miles_per_hour": "29463.8657225309"
            },
            "miss_distance": {
                "astronomical": "0.0269888731",
                "lunar": "10.4986716359",
                "kilometers": "4037477.929460297",
                "miles": "2508772.4520422186"
            },
            "orbiting_body": "Earth"
        }
    ],
    "orbital_data": {
        "orbit_id": "5",
        "orbit_determination_date": "2017-04-06 08:37:38",
        "first_observation_date": "2014-10-30",
        "last_observation_date": "2014-11-02",
        "data_arc_in_days": 3,
        "observations_used": 26,
        "orbit_uncertainty": "8",
        "minimum_orbit_intersection": ".0229831",
        "jupiter_tisserand_invariant": "3.660",
        "epoch_osculation": "2456961.5",
        "eccentricity": ".5392470598245381",
        "semi_major_axis": "1.967842734995931",
        "inclination": "11.13251262679295",
        "ascending_node_longitude": "33.32878161524106",
        "orbital_period": "1008.286630210123",
        "perihelion_distance": ".9066893259522976",
        "perihelion_argument": "309.7418296666544",
        "aphelion_distance": "3.028996144039565",
        "perihelion_time": "2456918.925385741828",
        "mean_anomaly": "15.20089692129298",
        "mean_motion": ".3570413305242157",
        "equinox": "J2000",
        "orbit_class": {
            "orbit_class_type": "APO",
            "orbit_class_description": "Near-Earth asteroid orbits which cross the Earth’s orbit similar to that of 1862 Apollo",
            "orbit_class_range": "a (semi-major axis) > 1.0 AU; q (perihelion) < 1.017 AU"
        }
    },
    "is_sentry_object": false
}